STARLINK-32759          
1 62751U 25014S   26068.29247696  .00035353  00000+0  12869-2 0  9996
2 62751  42.9997 160.3567 0003625 294.6034  65.4440 15.27605558 63157
TEVEL2-2                
1 63219U 25052K   26068.64848259  .00020339  00000+0  69428-3 0  9991
2 63219  97.3987 324.7700 0004693 105.7930 254.3828 15.30343745 54855
